KUIPER-00035            
1 63748U 25088AA  25290.27394301 -.00002670  00000+0 -32115-3 0  9999
2 63748  51.9018  28.2883 0004274 314.8887  45.1728 14.79935285 26278
KUIPER-00037            
1 63749U 25088AB  25290.20806014 -.00003382  00000+0 -41443-3 0  9997
2 63749  51.9005  27.5362 0007240 261.7223  98.2918 14.79933659 27060
KUIPER-00038            
1 63750U 25088AC  25290.21112493  .00002862  00000+0  43192-3 0  9994
2 63750  51.9030  12.3937 0005783 330.0960  29.9671 14.77064727 26276
KUIPER-00039            
1 64500U 25134A   25290.26432863 -.00000231  00000+0 -86133-6 0  9996
2 64500  51.8988 147.3021 0012009 174.7837 185.3252 14.79936263 18839
KUIPER-00040            
1 64501U 25134B   25289.37404473  .00002464  00000+0  35177-3 0  9990
2 64501  51.9005 162.4040 0018531 152.1871 208.0086 14.79924055 18546
KUIPER-00041            
1 64502U 25134C   25289.37301794  .00005578  00000+0  75923-3 0  9995
2 64502  51.8984 163.7663 0015224 144.3364 215.8618 14.79931346 18529
KUIPER-00042            
1 64503U 25134D   25289.37677726  .00005394  00000+0  73497-3 0  9997
2 64503  51.8981 159.7480 0013836 155.0634 205.0999 14.79951224 18581
KUIPER-00043            
1 64504U 25134E   25290.26276589 -.00002357  00000+0 -28022-3 0  9992
2 64504  51.9017 148.2620 0004373 142.9299 217.1966 14.79909286 18826
